[{"OBJECT_NAME":"SPIP","OBJECT_ID":"2023-174AU","EPOCH":"2026-03-09T22:52:46.383168","MEAN_MOTION":15.26695413,"ECCENTRICITY":0.00100427,"INCLINATION":97.3901,"RA_OF_ASC_NODE":146.4534,"ARG_OF_PERICENTER":168.1112,"MEAN_ANOMALY":192.0366,"EPHEMERIS_TYPE":0,"CLASSIFICATION_TYPE":"U","NORAD_CAT_ID":58298,"ELEMENT_SET_NO":999,"REV_AT_EPOCH":12963,"BSTAR":0.00025731582,"MEAN_MOTION_DOT":6.692e-5,"MEAN_MOTION_DDOT":0},{"OBJECT_NAME":"STARLINK-32089","OBJECT_ID":"2024-086F","EPOCH":"2026-03-09T22:43:41.097216","MEAN_MOTION":15.27576657,"ECCENTRICITY":6.181e-5,"INCLINATION":43.0023,"RA_OF_ASC_NODE":58.2597,"ARG_OF_PERICENTER":216.623,"MEAN_ANOMALY":143.458,"EPHEMERIS_TYPE":0,"CLASSIFICATION_TYPE":"U","NORAD_CAT_ID":59687,"ELEMENT_SET_NO":999,"REV_AT_EPOCH":10415,"BSTAR":-3.0076399e-5,"MEAN_MOTION_DOT":-1.089e-5,"MEAN_MOTION_DDOT":0}]
